[
   {
      "name": "STARLINK-1951",
      "line1": "1 47553U 21009F   21092.91668981  .00017994  00000-0  20214-3 0  9990",
      "line2": "2 47553  53.0517 201.5493 0003079  16.5220 331.7857 15.62723197  1767",
      "bstar": 20.214,
      "inc": 53.0517,
      "raan": 201.5493,
      "ecc": 0.0003079,
      "argp": 16.522,
      "nu": 331.7857,
      "mmo": 15.62723197,
      "a": 6757.93176
   },
   {
      "name": "STARLINK-1953",
      "line1": "1 47554U 21009G   21092.91668981 -.00003574  00000-0 -72722-4 0  9994",
      "line2": "2 47554  53.0536 205.7395 0001546  36.5952  11.9839 15.42149314  9606",
      "bstar": -7.2722,
      "inc": 53.0536,
      "raan": 205.7395,
      "ecc": 0.0001546,
      "argp": 36.5952,
      "nu": 11.9839,
      "mmo": 15.42149314,
      "a": 6817.90415
   },
   {
      "name": "STARLINK-1954",
      "line1": "1 47555U 21009H   21092.91668981  .00018109  00000-0  20353-3 0  9995",
      "line2": "2 47555  53.0532 201.5710 0003275  14.8539 324.5371 15.62705049  9664",
      "bstar": 20.353,
      "inc": 53.0532,
      "raan": 201.571,
      "ecc": 0.0003275,
      "argp": 14.8539,
      "nu": 324.5371,
      "mmo": 15.62705049,
      "a": 6757.98408
   },
   {
      "name": "STARLINK-1955",
      "line1": "1 47556U 21009J   21092.91668981 -.00026224  00000-0 -17481-2 0  9992",
      "line2": "2 47556  53.0525 210.0797 0001183  82.1769 246.6842 15.06400879  9541",
      "bstar": -174.81,
      "inc": 53.0525,
      "raan": 210.0797,
      "ecc": 0.0001183,
      "argp": 82.1769,
      "nu": 246.6842,
      "mmo": 15.06400879,
      "a": 6925.34586
   },
   {
      "name": "STARLINK-1956",
      "line1": "1 47557U 21009K   21092.91668981 -.00072083  00000-0 -48655-2 0  9994",
      "line2": "2 47557  53.0532 210.0727 0001190  60.7303 108.1349 15.06431163  9552",
      "bstar": -486.55,
      "inc": 53.0532,
      "raan": 210.0727,
      "ecc": 0.000119,
      "argp": 60.7303,
      "nu": 108.1349,
      "mmo": 15.06431163,
      "a": 6925.25305
   },
   {
      "name": "STARLINK-1957",
      "line1": "1 47558U 21009L   21092.91668981  .00022684  00000-0  25343-3 0  9995",
      "line2": "2 47558  53.0518 201.5460 0003501   4.5304 348.2322 15.62693608  9667",
      "bstar": 25.343,
      "inc": 53.0518,
      "raan": 201.546,
      "ecc": 0.0003501,
      "argp": 4.5304,
      "nu": 348.2322,
      "mmo": 15.62693608,
      "a": 6758.01707
   },
   {
      "name": "STARLINK-1958",
      "line1": "1 47559U 21009M   21092.91668981  .00001615  00000-0  23542-4 0  9997",
      "line2": "2 47559  53.0517 201.5251 0003260   6.1644 354.2296 15.62691528  1772",
      "bstar": 2.3542,
      "inc": 53.0517,
      "raan": 201.5251,
      "ecc": 0.000326,
      "argp": 6.1644,
      "nu": 354.2296,
      "mmo": 15.62691528,
      "a": 6758.02306
   },
   {
      "name": "STARLINK-1959",
      "line1": "1 47560U 21009N   21092.91668981  .00023273  00000-0  25958-3 0  9995",
      "line2": "2 47560  53.0513 201.5257 0002930  23.0340 338.6543 15.62721350  1778",
      "bstar": 25.958,
      "inc": 53.0513,
      "raan": 201.5257,
      "ecc": 0.000293,
      "argp": 23.034,
      "nu": 338.6543,
      "mmo": 15.6272135,
      "a": 6757.93709
   },
   {
      "name": "STARLINK-1960",
      "line1": "1 47561U 21009P   21092.91668981  .00022983  00000-0  25666-3 0  9999",
      "line2": "2 47561  53.0517 201.5674 0003241  10.6695 330.6345 15.62696901  9668",
      "bstar": 25.666,
      "inc": 53.0517,
      "raan": 201.5674,
      "ecc": 0.0003241,
      "argp": 10.6695,
      "nu": 330.6345,
      "mmo": 15.62696901,
      "a": 6758.00757
   },
   {
      "name": "STARLINK-1961",
      "line1": "1 47562U 21009Q   21092.91668981  .00021995  00000-0  24552-3 0  9995",
      "line2": "2 47562  53.0518 201.5737 0003458  11.4131 327.3368 15.62736810  9666",
      "bstar": 24.552,
      "inc": 53.0518,
      "raan": 201.5737,
      "ecc": 0.0003458,
      "argp": 11.4131,
      "nu": 327.3368,
      "mmo": 15.6273681,
      "a": 6757.89252
   },
   {
      "name": "STARLINK-1962",
      "line1": "1 47563U 21009R   21092.91668981  .00021912  00000-0  24499-3 0  9995",
      "line2": "2 47563  53.0516 201.5877 0003266   5.2898 329.6458 15.62698787  9663",
      "bstar": 24.499,
      "inc": 53.0516,
      "raan": 201.5877,
      "ecc": 0.0003266,
      "argp": 5.2898,
      "nu": 329.6458,
      "mmo": 15.62698787,
      "a": 6758.00214
   },
   {
      "name": "STARLINK-1963",
      "line1": "1 47564U 21009S   21092.91668981  .00022474  00000-0  25127-3 0  9999",
      "line2": "2 47564  53.0516 201.5594 0003284  11.0307 333.4519 15.62682013  9666",
      "bstar": 25.127,
      "inc": 53.0516,
      "raan": 201.5594,
      "ecc": 0.0003284,
      "argp": 11.0307,
      "nu": 333.4519,
      "mmo": 15.62682013,
      "a": 6758.0505
   },
   {
      "name": "STARLINK-1964",
      "line1": "1 47565U 21009T   21092.91668981  .00023321  00000-0  26034-3 0  9990",
      "line2": "2 47565  53.0518 201.5564 0003642   1.7784 343.3618 15.62695279  1760",
      "bstar": 26.034,
      "inc": 53.0518,
      "raan": 201.5564,
      "ecc": 0.0003642,
      "argp": 1.7784,
      "nu": 343.3618,
      "mmo": 15.62695279,
      "a": 6758.01225
   },
   {
      "name": "STARLINK-1965",
      "line1": "1 47566U 21009U   21092.91668981  .00020184  00000-0  22602-3 0  9992",
      "line2": "2 47566  53.0519 201.5349 0003762   8.8392 350.2600 15.62714802  9668",
      "bstar": 22.602,
      "inc": 53.0519,
      "raan": 201.5349,
      "ecc": 0.0003762,
      "argp": 8.8392,
      "nu": 350.26,
      "mmo": 15.62714802,
      "a": 6757.95596
   },
   {
      "name": "STARLINK-1966",
      "line1": "1 47567U 21009V   21092.91668981 -.00023053  00000-0 -15336-2 0  9998",
      "line2": "2 47567  53.0513 210.0892 0001390  91.3634 137.5014 15.06404039  9540",
      "bstar": -153.36,
      "inc": 53.0513,
      "raan": 210.0892,
      "ecc": 0.000139,
      "argp": 91.3634,
      "nu": 137.5014,
      "mmo": 15.06404039,
      "a": 6925.33618
   },
   {
      "name": "STARLINK-1967",
      "line1": "1 47568U 21009W   21092.91668981 -.00021981  00000-0 -14614-2 0  9995",
      "line2": "2 47568  53.0545 210.0823 0001377  69.4302  19.4371 15.06398465  1757",
      "bstar": -146.14,
      "inc": 53.0545,
      "raan": 210.0823,
      "ecc": 0.0001377,
      "argp": 69.4302,
      "nu": 19.4371,
      "mmo": 15.06398465,
      "a": 6925.35326
   },
   {
      "name": "STARLINK-1968",
      "line1": "1 47569U 21009X   21092.91668981  .00003812  00000-0  76562-4 0  9999",
      "line2": "2 47569  53.0521 204.6767 0003445   8.3706 257.9527 15.49318633  9628",
      "bstar": 7.6562,
      "inc": 53.0521,
      "raan": 204.6767,
      "ecc": 0.0003445,
      "argp": 8.3706,
      "nu": 257.9527,
      "mmo": 15.49318633,
      "a": 6796.85511
   },
   {
      "name": "STARLINK-1969",
      "line1": "1 47570U 21009Y   21092.91668981  .00024504  00000-0  27315-3 0  9993",
      "line2": "2 47570  53.0518 201.5238 0003333   6.5749 354.4222 15.62702001  9668",
      "bstar": 27.315,
      "inc": 53.0518,
      "raan": 201.5238,
      "ecc": 0.0003333,
      "argp": 6.5749,
      "nu": 354.4222,
      "mmo": 15.62702001,
      "a": 6757.99287
   },
   {
      "name": "STARLINK-1970",
      "line1": "1 47571U 21009Z   21092.91668981  .00022897  00000-0  25534-3 0  9998",
      "line2": "2 47571  53.0518 201.5573 0003370   9.4066 336.9885 15.62735136  9661",
      "bstar": 25.534,
      "inc": 53.0518,
      "raan": 201.5573,
      "ecc": 0.000337,
      "argp": 9.4066,
      "nu": 336.9885,
      "mmo": 15.62735136,
      "a": 6757.89734
   },
   {
      "name": "STARLINK-1971",
      "line1": "1 47572U 21009AA  21092.91668981  .00023492  00000-0  26208-3 0  9990",
      "line2": "2 47572  53.0519 201.5526 0002986   8.8677 340.6749 15.62709611  9664",
      "bstar": 26.208,
      "inc": 53.0519,
      "raan": 201.5526,
      "ecc": 0.0002986,
      "argp": 8.8677,
      "nu": 340.6749,
      "mmo": 15.62709611,
      "a": 6757.97093
   },
   {
      "name": "STARLINK-1975",
      "line1": "1 47573U 21009AB  21092.91668981  .00023536  00000-0  26239-3 0  9994",
      "line2": "2 47573  53.0517 201.5502 0003786   7.1254 346.2797 15.62723266  9666",
      "bstar": 26.239,
      "inc": 53.0517,
      "raan": 201.5502,
      "ecc": 0.0003786,
      "argp": 7.1254,
      "nu": 346.2797,
      "mmo": 15.62723266,
      "a": 6757.93156
   },
   {
      "name": "STARLINK-1976",
      "line1": "1 47574U 21009AC  21092.91668981 -.00046290  00000-0 -31082-2 0  9990",
      "line2": "2 47574  53.0472 210.1058 0001257  78.3087 130.5728 15.06409252  9543",
      "bstar": -310.82,
      "inc": 53.0472,
      "raan": 210.1058,
      "ecc": 0.0001257,
      "argp": 78.3087,
      "nu": 130.5728,
      "mmo": 15.06409252,
      "a": 6925.3202
   },
   {
      "name": "STARLINK-1977",
      "line1": "1 47575U 21009AD  21092.91668981 -.00024587  00000-0 -16369-2 0  9997",
      "line2": "2 47575  53.0508 210.0842 0001082  83.9442 184.9300 15.06412747  9549",
      "bstar": -163.69,
      "inc": 53.0508,
      "raan": 210.0842,
      "ecc": 0.0001082,
      "argp": 83.9442,
      "nu": 184.93,
      "mmo": 15.06412747,
      "a": 6925.30949
   },
   {
      "name": "STARLINK-1978",
      "line1": "1 47576U 21009AE  21092.91668981  .00023117  00000-0  25822-3 0  9999",
      "line2": "2 47576  53.0520 201.5238 0002871   7.4682 352.2953 15.62687842  1775",
      "bstar": 25.822,
      "inc": 53.052,
      "raan": 201.5238,
      "ecc": 0.0002871,
      "argp": 7.4682,
      "nu": 352.2953,
      "mmo": 15.62687842,
      "a": 6758.03369
   }
]